{
 "type": "FeatureCollection",
 "features": [
  {
   "type": "Feature",
   "properties": {
    "name": "Lower Manhattan Waterfront Walk"
   },
   "geometry": {
    "type": "LineString",
    "coordinates": [
     [
      -74.0134,
      40.7056
     ],
     [
      -74.01355,
      40.705
     ],
     [
      -74.0138,
      40.7043
     ],
     [
      -74.0145,
      40.7041
     ],
     [
      -74.0155,
      40.7039
     ],
     [
      -74.0164,
      40.7037
     ],
     [
      -74.0169,
      40.7036
     ],
     [
      -74.0176,
      40.704
     ],
     [
      -74.0181,
      40.7043
     ],
     [
      -74.0176,
      40.7036
     ],
     [
      -74.0168,
      40.7031
     ],
     [
      -74.0159,
      40.7029
     ],
     [
      -74.0153,
      40.7025
     ],
     [
      -74.0145,
      40.702
     ],
     [
      -74.0138,
      40.7016
     ],
     [
      -74.0132,
      40.7014
     ],
     [
      -74.0123,
      40.7015
     ],
     [
      -74.0112,
      40.7017
     ],
     [
      -74.0102,
      40.702
     ],
     [
      -74.0093,
      40.7023
     ],
     [
      -74.0083,
      40.7027
     ],
     [
      -74.0074,
      40.703
     ],
     [
      -74.0062,
      40.7034
     ],
     [
      -74.0052,
      40.7037
     ],
     [
      -74.0042,
      40.704
     ],
     [
      -74.0032,
      40.7043
     ],
     [
      -74.00285,
      40.7049
     ],
     [
      -74.00265,
      40.7056
     ],
     [
      -74.0026,
      40.706
     ],
     [
      -74.0038,
      40.7064
     ],
     [
      -74.0052,
      40.7065
     ],
     [
      -74.0065,
      40.7057
     ],
     [
      -74.0079,
      40.7049
     ],
     [
      -74.009,
      40.7042
     ],
     [
      -74.0101,
      40.7037
     ],
     [
      -74.0113,
      40.7035
     ],
     [
      -74.0112,
      40.704
     ],
     [
      -74.01105,
      40.7043
     ],
     [
      -74.01095,
      40.7048
     ],
     [
      -74.0108,
      40.7056
     ],
     [
      -74.01055,
      40.7065
     ],
     [
      -74.0104,
      40.7071
     ],
     [
      -74.0102,
      40.7073
     ]
    ]
   }
  }
 ]
}