{
 "type": "FeatureCollection",
 "features": [
  {
   "type": "Feature",
   "properties": {
    "name": "Central Park East Side Discovery Walk"
   },
   "geometry": {
    "type": "LineString",
    "coordinates": [
     [
      -73.9545,
      40.7972
     ],
     [
      -73.953,
      40.7968
     ],
     [
      -73.9514,
      40.7964
     ],
     [
      -73.9514,
      40.7952
     ],
     [
      -73.9519,
      40.7937
     ],
     [
      -73.9524,
      40.7928
     ],
     [
      -73.9532,
      40.7915
     ],
     [
      -73.9543,
      40.79
     ],
     [
      -73.9556,
      40.7885
     ],
     [
      -73.9568,
      40.7872
     ],
     [
      -73.9575,
      40.7862
     ],
     [
      -73.9581,
      40.7852
     ],
     [
      -73.95874,
      40.78416
     ],
     [
      -73.9591,
      40.7833
     ],
     [
      -73.9596,
      40.7822
     ],
     [
      -73.9608,
      40.7812
     ],
     [
      -73.9621,
      40.7802
     ],
     [
      -73.9632,
      40.7794
     ],
     [
      -73.9645,
      40.7795
     ],
     [
      -73.966,
      40.78
     ],
     [
      -73.9663,
      40.7789
     ],
     [
      -73.9661,
      40.7775
     ],
     [
      -73.9661,
      40.776
     ],
     [
      -73.9663,
      40.7745
     ]
    ]
   }
  }
 ]
}